FENGYUN 1C DEB          
1 30660U 99025APS 17345.58482391  .00000336  00000-0  57170-4 0  9996
2 30660  98.4316   0.8611 0195356 218.8564 270.4807 14.64697193578511
